[{"OBJECT_NAME":"STARLINK-32005","OBJECT_ID":"2024-111U","EPOCH":"2026-03-09T10:09:18.082944","MEAN_MOTION":15.30189799,"ECCENTRICITY":0.00013417,"INCLINATION":53.1608,"RA_OF_ASC_NODE":76.7898,"ARG_OF_PERICENTER":94.4829,"MEAN_ANOMALY":265.6325,"EPHEMERIS_TYPE":0,"CLASSIFICATION_TYPE":"U","NORAD_CAT_ID":60034,"ELEMENT_SET_NO":999,"REV_AT_EPOCH":9889,"BSTAR":-9.065365e-6,"MEAN_MOTION_DOT":-6.28e-6,"MEAN_MOTION_DDOT":0},{"OBJECT_NAME":"HERMES-3","OBJECT_ID":"2025-052BR","EPOCH":"2026-03-09T22:30:01.073952","MEAN_MOTION":15.30039786,"ECCENTRICITY":0.00079928,"INCLINATION":97.3987,"RA_OF_ASC_NODE":324.6131,"ARG_OF_PERICENTER":112.9583,"MEAN_ANOMALY":247.2502,"EPHEMERIS_TYPE":0,"CLASSIFICATION_TYPE":"U","NORAD_CAT_ID":63835,"ELEMENT_SET_NO":999,"REV_AT_EPOCH":5486,"BSTAR":0.0006995793,"MEAN_MOTION_DOT":0.00020316,"MEAN_MOTION_DDOT":0}]
